STARLINK-37264          
1 68729U 26082B   26113.55539940 -.00018577  00000+0 -95844-4 0  9996
2 68729  97.2885 335.6704 0000681  88.6682 271.4665 15.80954039  1189
