{
  "norad_id": 68729,
  "name": "STARLINK-37264",
  "history": [
    {
      "epoch": "2026-04-23T13:19:46.508160Z",
      "apogee_km": 328.19867485933264,
      "perigee_km": 327.28426127142757,
      "latitude_deg": 6.728414892182144e-05,
      "longitude_deg": -75.87434058722786,
      "height_km": 330.90570937164244,
      "semi_major_axis_km": 6705.87846806538,
      "eccentricity": 6.818e-05,
      "inclination_deg": 97.2885,
      "raan_deg": 335.6704,
      "arg_perigee_deg": 88.6682,
      "mean_anomaly_deg": 271.4665,
      "mean_motion_rev_day": 15.80954039
    }
  ]
}